{"type":"FeatureCollection","features":[{"type":"Feature","properties":{},"geometry":{"type":"Polygon","coordinates":[[[-8.966,-71.361],[-8.646,-71.673],[-7.916,-71.635],[-7.714,-71.546],[-7.669,-71.324],[-7.59,-71.224],[-7.618,-71.121],[-7.873,-70.94],[-7.855,-70.885],[-7.388,-70.787],[-6.838,-70.845],[-5.936,-70.713],[-5.695,-70.745],[-5.588,-70.857],[-5.709,-70.968],[-6.08,-71.154],[-6.127,-71.266],[-6.117,-71.326],[-4.45,-71.328],[-3.713,-71.375],[-2.61,-71.321],[-2.261,-71.357],[-2.015,-71.433],[-1.354,-71.387],[-1.216,-71.284],[-1.068,-71.266],[-0.896,-71.349],[-0.84,-71.54],[-0.76,-71.63],[-0.543,-71.713],[-0.327,-71.642],[0.154,-71.398],[0.538,-71.274],[1.909,-71.004],[2.609,-70.9],[3.507,-70.844],[5.113,-70.656],[6.508,-70.586],[7.401,-70.494],[7.677,-70.356],[8.523,-70.474],[8.817,-70.391],[9.142,-70.184],[9.613,-70.269],[9.886,-70.403],[10.218,-70.508],[10.969,-70.688],[11.701,-70.767],[11.834,-70.737],[12.068,-70.617],[12.462,-70.37],[12.929,-70.213],[12.865,-70.162],[12.595,-70.117],[12.626,-70.066],[13.066,-70.054],[13.298,-70.23],[13.823,-70.343],[14.492,-70.3],[15.807,-70.324],[16.025,-70.193],[16.381,-70.145],[16.585,-70.204],[16.709,-70.397],[18.125,-70.54],[18.232,-70.518],[18.351,-70.416],[18.433,-70.29],[18.877,-70.201],[19.009,-70.212],[19.196,-70.293],[19.132,-70.492],[19.027,-70.674],[19.265,-70.902],[19.409,-70.917],[20.128,-70.918],[21.071,-70.843],[21.337,-70.495],[21.705,-70.258],[21.962,-70.3],[22.366,-70.475],[22.396,-70.561],[22.234,-70.643],[22.278,-70.696],[22.979,-70.81],[23.15,-70.796],[23.407,-70.723],[23.665,-70.575],[23.804,-70.405],[24.024,-70.413],[24.236,-70.449],[24.386,-70.537],[24.386,-70.704],[24.757,-70.892],[25.187,-70.971],[25.974,-71.037],[26.499,-71.02],[27.207,-70.911],[27.698,-70.772],[28.912,-70.583],[29.464,-70.406],[30.003,-70.3],[31.379,-70.226],[32.621,-70.001],[32.81,-69.909],[32.989,-69.624],[32.976,-69.517],[32.903,-69.379],[32.568,-69.074],[32.642,-68.869],[32.776,-68.783],[33.121,-68.689],[33.466,-68.671],[34.193,-68.702],[34.219,-68.791],[33.772,-69.02],[33.814,-69.099],[34.596,-69.095],[34.75,-69.168],[35.131,-69.487],[35.225,-69.637],[35.357,-69.681],[36.586,-69.638],[36.719,-69.652],[37.115,-69.81],[37.56,-69.718],[37.787,-69.726],[38.144,-69.824],[38.499,-70.056],[38.886,-70.172],[38.912,-70.098],[38.859,-70.006],[39.487,-69.608],[39.705,-69.426],[39.762,-69.173],[39.864,-68.967],[40.216,-68.805],[40.484,-68.739],[40.817,-68.724],[41.133,-68.575],[41.356,-68.515],[42.409,-68.352],[42.82,-68.123],[42.961,-68.095],[44.373,-67.961],[44.7,-67.904],[44.99,-67.769],[45.197,-67.731],[45.569,-67.736],[45.888,-67.66],[46.399,-67.618],[46.437,-67.533],[46.32,-67.477],[46.317,-67.402],[46.56,-67.268],[46.884,-67.275],[47.154,-67.357],[47.352,-67.362],[47.403,-67.409],[47.231,-67.468],[47.117,-67.573],[47.49,-67.728],[47.959,-67.66],[48.21,-67.699],[48.322,-67.785],[48.322,-67.917],[48.375,-67.988],[48.551,-67.926],[48.648,-67.794],[48.63,-67.521],[49.053,-67.352],[49.219,-67.227],[48.923,-67.2],[48.714,-67.217],[48.598,-67.171],[48.465,-67.043],[48.83,-66.938],[49.247,-66.942],[50.006,-67.175],[50.553,-67.194],[50.606,-67.15],[50.509,-66.939],[50.521,-66.82],[50.306,-66.753],[50.244,-66.603],[50.332,-66.445],[50.588,-66.356],[50.937,-66.315],[51.885,-66.02],[52.955,-65.946],[53.672,-65.859],[55.29,-65.954],[55.71,-66.08],[56.362,-66.373],[56.859,-66.423],[57.0,-66.475],[57.185,-66.613],[56.987,-66.704],[56.824,-66.713],[56.295,-66.603],[56.146,-66.626],[56.453,-66.78],[56.48,-66.859],[56.391,-66.974],[55.803,-67.199],[56.155,-67.265],[56.76,-67.073],[57.361,-67.053],[57.627,-67.014],[58.737,-67.23],[59.251,-67.485],[59.65,-67.459],[59.868,-67.403],[60.482,-67.385],[61.309,-67.54],[62.174,-67.575],[62.688,-67.648],[63.238,-67.527],[63.699,-67.508],[64.574,-67.62],[65.708,-67.716],[66.488,-67.766],[67.175,-67.768],[68.328,-67.89],[68.9,-67.862],[69.167,-67.825],[69.416,-67.743],[69.559,-67.763],[69.656,-67.865],[69.603,-68.041],[69.789,-68.279],[69.982,-68.464],[69.928,-68.535],[69.534,-68.737],[69.547,-68.857],[69.646,-68.932],[69.531,-69.024],[69.615,-69.154],[69.629,-69.232],[69.549,-69.294],[69.372,-69.331],[69.065,-69.337],[68.906,-69.373],[68.88,-69.47],[68.959,-69.54],[69.136,-69.578],[69.188,-69.655],[69.162,-69.77],[69.083,-69.867],[68.744,-69.921],[68.415,-69.902],[68.178,-69.837],[67.575,-70.088],[67.268,-70.273],[67.659,-70.326],[67.941,-70.423],[68.559,-70.412],[69.021,-70.325],[69.162,-70.334],[69.25,-70.431],[69.188,-70.705],[68.873,-71.035],[68.624,-71.181],[68.037,-71.391],[67.432,-72.003],[67.113,-72.641],[66.892,-72.949],[66.498,-73.125],[66.569,-73.209],[67.003,-73.236],[67.322,-73.3],[67.971,-73.086],[68.016,-72.918],[67.971,-72.751],[68.107,-72.651],[68.42,-72.515],[69.555,-72.375],[69.962,-72.133],[70.294,-72.055],[70.573,-71.931],[70.616,-71.842],[71.079,-71.737],[71.277,-71.624],[71.349,-71.514],[71.379,-71.309],[71.465,-71.155],[71.771,-70.801],[71.905,-70.707],[72.263,-70.657],[72.418,-70.599],[72.76,-70.396],[72.744,-70.239],[72.822,-70.096],[73.325,-69.849],[73.676,-69.826],[73.942,-69.743],[74.571,-69.88],[75.148,-69.855],[75.424,-69.893],[75.636,-69.849],[75.821,-69.725],[75.891,-69.576],[76.112,-69.487],[76.36,-69.49],[77.192,-69.206],[77.541,-69.174],[77.817,-69.069],[78.015,-68.892],[78.489,-68.626],[78.563,-68.394],[78.726,-68.278],[79.035,-68.175],[82.017,-67.69],[82.273,-67.692],[82.607,-67.613],[83.304,-67.603],[83.494,-67.441],[83.904,-67.292],[84.161,-67.244],[84.485,-67.114],[84.748,-67.102],[85.711,-67.161],[86.118,-67.055],[86.75,-67.037],[87.085,-66.94],[87.98,-66.788],[88.314,-66.817],[88.789,-66.792],[89.698,-66.823],[90.547,-66.734],[91.022,-66.603],[92.073,-66.508],[92.592,-66.614],[92.731,-66.624],[93.075,-66.571],[94.089,-66.689],[94.313,-66.647],[94.587,-66.544],[94.84,-66.501],[95.541,-66.631],[96.424,-66.6],[97.101,-66.499],[97.388,-66.579],[97.72,-66.607],[98.258,-66.467],[98.72,-66.553],[98.859,-66.671],[99.37,-66.648],[100.889,-66.358],[101.327,-66.1],[101.321,-66.021],[101.381,-65.973],[102.174,-65.954],[102.674,-65.865],[103.639,-65.999],[103.951,-65.988],[104.667,-66.137],[105.0,-66.164],[106.387,-66.411],[107.171,-66.47],[107.667,-66.58],[107.785,-66.664],[107.992,-66.672],[108.158,-66.639],[108.376,-66.766],[108.91,-66.862],[109.463,-66.909],[109.824,-66.834],[110.437,-66.621],[110.622,-66.524],[110.587,-66.312],[110.907,-66.077],[111.453,-65.961],[113.099,-65.8],[113.71,-65.93],[113.954,-66.06],[114.337,-66.36],[114.619,-66.468],[115.082,-66.493],[115.31,-66.561],[115.635,-66.771],[115.442,-66.958],[115.274,-67.028],[114.571,-67.108],[113.991,-67.212],[113.912,-67.368],[114.027,-67.441],[114.926,-67.357],[115.384,-67.238],[115.885,-67.202],[116.509,-67.108],[116.713,-67.047],[116.924,-67.055],[117.132,-67.114],[117.745,-67.129],[118.139,-67.082],[118.714,-67.172],[119.768,-66.992],[120.0,-66.978],[120.0,-67.066],[119.281,-67.199],[118.922,-67.32],[119.133,-67.371],[120.0,-67.279],[120.0,-80.0],[-10.0,-80.0],[-10.0,-70.974],[-9.888,-71.027],[-9.231,-71.174],[-8.966,-71.361]]]}},{"type":"Feature","properties":{},"geometry":{"type":"Polygon","coordinates":[[[68.729,-72.089],[68.84,-72.165],[68.817,-72.229],[68.67,-72.276],[68.409,-72.3],[68.667,-72.103],[68.729,-72.089]]]}},{"type":"Feature","properties":{},"geometry":{"type":"Polygon","coordinates":[[[-3.404,-71.12],[-3.399,-71.062],[-3.263,-71.052],[-2.955,-71.214],[-3.201,-71.23],[-3.309,-71.201],[-3.404,-71.12]]]}},{"type":"Feature","properties":{},"geometry":{"type":"Polygon","coordinates":[[[-2.293,-70.998],[-2.607,-71.141],[-2.783,-71.167],[-2.825,-71.113],[-2.801,-70.982],[-2.963,-70.94],[-3.007,-70.851],[-3.575,-70.703],[-3.04,-70.674],[-2.75,-70.694],[-2.423,-70.8],[-2.092,-70.821],[-2.293,-70.998]]]}},{"type":"Feature","properties":{},"geometry":{"type":"Polygon","coordinates":[[[-6.068,-70.405],[-5.95,-70.432],[-5.894,-70.552],[-6.156,-70.612],[-6.438,-70.453],[-6.068,-70.405]]]}},{"type":"Feature","properties":{},"geometry":{"type":"Polygon","coordinates":[[[3.072,-70.382],[3.231,-70.403],[3.26,-70.449],[3.221,-70.519],[3.037,-70.597],[2.698,-70.624],[2.623,-70.593],[2.585,-70.535],[3.072,-70.382]]]}},{"type":"Feature","properties":{},"geometry":{"type":"Polygon","coordinates":[[[-2.95,-70.28],[-2.714,-70.32],[-2.683,-70.462],[-2.738,-70.507],[-3.442,-70.535],[-3.49,-70.508],[-3.287,-70.344],[-2.95,-70.28]]]}},{"type":"Feature","properties":{},"geometry":{"type":"Polygon","coordinates":[[[4.07,-70.29],[4.256,-70.241],[4.495,-70.251],[4.586,-70.294],[4.618,-70.369],[4.526,-70.479],[4.365,-70.503],[4.13,-70.417],[4.07,-70.29]]]}},{"type":"Feature","properties":{},"geometry":{"type":"Polygon","coordinates":[[[26.005,-70.373],[25.954,-70.261],[25.983,-70.2],[26.301,-70.072],[26.426,-70.061],[26.686,-70.114],[26.875,-70.33],[26.857,-70.381],[26.793,-70.419],[26.609,-70.412],[26.47,-70.448],[26.005,-70.373]]]}},{"type":"Feature","properties":{},"geometry":{"type":"Polygon","coordinates":[[[0.95,-70.094],[1.027,-70.05],[1.315,-70.023],[1.412,-70.041],[1.461,-70.136],[1.299,-70.255],[1.212,-70.381],[1.156,-70.378],[0.99,-70.224],[0.95,-70.094]]]}},{"type":"Feature","properties":{},"geometry":{"type":"Polygon","coordinates":[[[15.563,-69.863],[15.699,-69.773],[15.91,-69.728],[16.247,-69.705],[16.573,-69.723],[16.625,-69.75],[16.315,-69.844],[16.159,-70.072],[15.614,-69.939],[15.563,-69.863]]]}},{"type":"Feature","properties":{},"geometry":{"type":"Polygon","coordinates":[[[48.301,-66.724],[48.638,-66.701],[48.782,-66.731],[48.786,-66.768],[48.378,-66.807],[48.304,-66.798],[48.301,-66.724]]]}},{"type":"Feature","properties":{},"geometry":{"type":"Polygon","coordinates":[[[69.796,-71.894],[69.918,-71.918],[69.792,-72.047],[69.744,-72.044],[69.693,-71.968],[69.796,-71.894]]]}},{"type":"Feature","properties":{},"geometry":{"type":"Polygon","coordinates":[[[71.647,-70.336],[71.705,-70.284],[71.797,-70.264],[71.88,-70.406],[72.056,-70.501],[72.097,-70.575],[72.078,-70.609],[71.841,-70.622],[71.726,-70.549],[71.637,-70.444],[71.647,-70.336]]]}},{"type":"Feature","properties":{},"geometry":{"type":"Polygon","coordinates":[[[85.314,-66.776],[85.34,-66.723],[85.806,-66.775],[85.938,-66.894],[85.822,-66.953],[85.65,-66.98],[85.359,-66.854],[85.314,-66.776]]]}},{"type":"Feature","properties":{},"geometry":{"type":"Polygon","coordinates":[[[86.383,-66.675],[86.652,-66.718],[86.427,-66.792],[86.337,-66.788],[86.232,-66.733],[86.383,-66.675]]]}},{"type":"Feature","properties":{},"geometry":{"type":"Polygon","coordinates":[[[85.121,-66.519],[85.194,-66.556],[85.329,-66.612],[85.222,-66.643],[85.08,-66.604],[85.121,-66.519]]]}},{"type":"Feature","properties":{},"geometry":{"type":"Polygon","coordinates":[[[98.749,-66.369],[98.95,-66.421],[98.752,-66.482],[98.655,-66.453],[98.596,-66.383],[98.749,-66.369]]]}},{"type":"Feature","properties":{},"geometry":{"type":"Polygon","coordinates":[[[100.291,-66.112],[100.265,-66.217],[100.133,-66.229],[100.076,-66.188],[100.174,-66.131],[100.291,-66.112]]]}},{"type":"Feature","properties":{},"geometry":{"type":"Polygon","coordinates":[[[96.934,-66.201],[96.395,-66.225],[96.307,-66.186],[96.399,-66.08],[96.613,-66.036],[96.932,-66.058],[97.006,-66.097],[97.016,-66.164],[96.934,-66.201]]]}},{"type":"Feature","properties":{},"geometry":{"type":"Polygon","coordinates":[[[92.301,-65.707],[92.496,-65.702],[92.634,-65.731],[92.67,-65.775],[92.471,-65.822],[92.333,-65.807],[92.248,-65.74],[92.301,-65.707]]]}},{"type":"Feature","properties":{},"geometry":{"type":"Polygon","coordinates":[[[100.324,-65.521],[100.545,-65.409],[100.883,-65.378],[101.079,-65.403],[101.221,-65.472],[101.259,-65.528],[101.238,-65.565],[100.981,-65.678],[100.547,-65.701],[100.293,-65.651],[100.27,-65.603],[100.324,-65.521]]]}},{"type":"Feature","properties":{},"geometry":{"type":"Polygon","coordinates":[[[103.113,-65.312],[102.789,-65.236],[102.76,-65.168],[102.796,-65.136],[102.893,-65.13],[103.137,-65.191],[103.191,-65.237],[103.186,-65.331],[103.397,-65.445],[103.337,-65.469],[103.176,-65.455],[103.138,-65.435],[103.113,-65.312]]]}}],"properties":{"source":"Natural Earth 1:50m land (public domain)"}}