{"type":"FeatureCollection","features":[{"type":"Feature","properties":{},"geometry":{"type":"Polygon","coordinates":[[[71.06,-68.697],[71.218,-68.7],[71.317,-68.626],[71.413,-68.6],[71.654,-68.649],[71.89,-68.593],[72.2,-68.59],[72.704,-68.632],[72.774,-68.673],[72.781,-68.715],[73.155,-68.748],[73.487,-68.878],[73.808,-69.115],[73.904,-69.138],[74.272,-69.353],[74.193,-69.349],[74.277,-69.418],[73.941,-69.426],[74.16,-69.496],[74.095,-69.536],[73.746,-69.592],[73.685,-69.649],[73.718,-69.703],[73.684,-69.738],[73.702,-69.753],[74.321,-69.718],[74.527,-69.756],[74.555,-69.64],[74.781,-69.607],[74.876,-69.67],[75.049,-69.642],[75.098,-69.618],[75.035,-69.591],[75.123,-69.56],[75.495,-69.599],[75.597,-69.553],[75.794,-69.549],[75.872,-69.616],[75.821,-69.726],[75.635,-69.849],[75.424,-69.893],[75.148,-69.855],[74.571,-69.88],[73.942,-69.743],[73.676,-69.826],[73.325,-69.849],[72.822,-70.096],[72.744,-70.239],[72.76,-70.396],[72.418,-70.599],[72.263,-70.657],[71.905,-70.707],[71.771,-70.801],[71.465,-71.155],[71.379,-71.309],[71.349,-71.514],[71.277,-71.624],[71.079,-71.737],[70.616,-71.842],[70.573,-71.931],[70.294,-72.055],[69.962,-72.133],[69.555,-72.374],[68.42,-72.515],[68.107,-72.651],[67.971,-72.751],[68.015,-72.918],[67.971,-73.086],[67.749,-73.168],[67.322,-73.3],[67.003,-73.236],[66.569,-73.209],[66.498,-73.126],[66.892,-72.949],[67.113,-72.641],[67.432,-72.003],[68.037,-71.391],[68.624,-71.181],[68.873,-71.035],[69.188,-70.705],[69.25,-70.431],[69.162,-70.334],[69.021,-70.325],[68.559,-70.412],[67.941,-70.423],[67.659,-70.326],[67.268,-70.273],[67.575,-70.088],[68.178,-69.837],[68.415,-69.902],[68.744,-69.921],[69.083,-69.867],[69.162,-69.77],[69.188,-69.655],[69.136,-69.578],[68.959,-69.54],[68.88,-69.47],[68.906,-69.373],[69.065,-69.337],[69.372,-69.331],[69.549,-69.294],[69.629,-69.232],[69.615,-69.154],[69.531,-69.024],[69.646,-68.932],[69.547,-68.857],[69.534,-68.737],[69.928,-68.535],[69.978,-68.46],[70.236,-68.513],[70.332,-68.679],[70.399,-68.712],[70.684,-68.704],[70.838,-68.603],[71.06,-68.697]],[[71.726,-70.549],[71.841,-70.622],[71.929,-70.633],[72.078,-70.609],[72.097,-70.575],[72.0,-70.457],[71.88,-70.406],[71.797,-70.264],[71.705,-70.284],[71.647,-70.336],[71.637,-70.444],[71.726,-70.549]],[[69.796,-71.894],[69.692,-71.968],[69.744,-72.044],[69.792,-72.047],[69.918,-71.918],[69.796,-71.894]],[[68.817,-72.229],[68.84,-72.165],[68.729,-72.089],[68.667,-72.103],[68.409,-72.3],[68.669,-72.276],[68.817,-72.229]]]}},{"type":"Feature","properties":{},"geometry":{"type":"Polygon","coordinates":[[[0.252,-69.829],[0.3,-69.849],[0.255,-69.949],[0.356,-69.891],[0.406,-69.934],[0.277,-70.121],[0.453,-70.02],[0.839,-69.894],[1.139,-69.945],[1.243,-70.029],[1.027,-70.05],[0.95,-70.094],[0.952,-70.169],[1.156,-70.378],[1.211,-70.381],[1.299,-70.255],[1.461,-70.136],[1.419,-70.047],[1.464,-70.055],[1.75,-69.947],[1.934,-69.951],[2.091,-69.998],[2.102,-70.062],[2.228,-70.028],[2.356,-70.136],[2.455,-70.154],[3.004,-70.093],[3.051,-70.107],[3.022,-70.126],[3.313,-70.106],[3.393,-70.065],[3.628,-70.052],[3.769,-70.079],[3.756,-70.113],[3.801,-70.123],[3.979,-70.094],[4.12,-70.121],[4.053,-70.253],[4.102,-70.272],[4.07,-70.29],[4.076,-70.325],[4.13,-70.417],[4.365,-70.503],[4.526,-70.479],[4.59,-70.433],[4.617,-70.369],[4.586,-70.294],[4.47,-70.25],[4.507,-70.233],[4.496,-70.212],[4.873,-70.189],[5.332,-70.103],[5.406,-70.193],[5.526,-70.238],[5.733,-70.245],[5.533,-70.117],[5.525,-70.09],[5.642,-70.008],[6.297,-70.001],[6.492,-70.042],[7.193,-69.997],[7.413,-70.152],[7.392,-70.192],[7.618,-70.209],[7.945,-70.129],[8.046,-70.006],[8.049,-69.958],[8.189,-69.873],[8.355,-69.984],[8.408,-69.977],[8.428,-69.884],[8.479,-69.865],[9.018,-69.985],[9.071,-70.009],[9.08,-70.088],[9.156,-70.1],[9.318,-70.1],[9.703,-70.012],[9.871,-70.027],[9.842,-70.015],[9.881,-70.0],[9.863,-69.984],[10.227,-69.91],[10.459,-69.942],[10.415,-69.971],[10.481,-69.963],[10.753,-70.054],[10.978,-70.042],[11.025,-70.011],[10.992,-69.982],[11.304,-69.954],[11.343,-69.991],[11.735,-70.054],[11.838,-69.994],[11.889,-70.012],[11.867,-69.949],[11.961,-69.977],[11.931,-69.945],[11.953,-69.929],[12.258,-70.063],[12.607,-70.097],[12.595,-70.117],[12.865,-70.162],[12.929,-70.213],[12.462,-70.37],[12.068,-70.617],[11.834,-70.737],[11.701,-70.767],[10.969,-70.688],[10.218,-70.508],[9.885,-70.403],[9.614,-70.269],[9.142,-70.184],[8.817,-70.391],[8.523,-70.474],[7.677,-70.356],[7.401,-70.494],[6.508,-70.586],[5.113,-70.656],[3.507,-70.844],[2.609,-70.9],[1.909,-71.004],[0.538,-71.274],[0.154,-71.398],[-0.327,-71.642],[-0.543,-71.713],[-0.76,-71.63],[-0.84,-71.54],[-0.896,-71.349],[-1.068,-71.266],[-1.216,-71.284],[-1.354,-71.387],[-2.015,-71.433],[-2.261,-71.357],[-2.61,-71.321],[-3.713,-71.375],[-4.45,-71.328],[-6.117,-71.326],[-6.127,-71.266],[-6.08,-71.154],[-5.709,-70.968],[-5.588,-70.857],[-5.695,-70.745],[-5.936,-70.713],[-6.838,-70.845],[-7.388,-70.787],[-7.753,-70.843],[-7.855,-70.885],[-7.874,-70.94],[-7.618,-71.121],[-7.59,-71.224],[-7.669,-71.324],[-7.714,-71.546],[-7.916,-71.635],[-8.647,-71.673],[-8.966,-71.361],[-9.231,-71.174],[-9.888,-71.027],[-10.0,-70.974],[-9.81,-70.869],[-9.694,-70.747],[-8.754,-70.53],[-8.571,-70.552],[-8.197,-70.505],[-8.212,-70.538],[-8.14,-70.54],[-8.15,-70.622],[-8.1,-70.657],[-7.754,-70.684],[-7.454,-70.618],[-7.428,-70.528],[-7.244,-70.44],[-7.063,-70.423],[-6.735,-70.458],[-6.646,-70.454],[-6.609,-70.413],[-6.406,-70.451],[-6.438,-70.453],[-6.156,-70.612],[-5.894,-70.552],[-5.96,-70.427],[-5.825,-70.484],[-5.827,-70.45],[-5.742,-70.437],[-5.679,-70.373],[-5.594,-70.346],[-5.55,-70.362],[-5.6,-70.384],[-5.568,-70.396],[-5.009,-70.356],[-3.527,-70.415],[-3.439,-70.448],[-3.497,-70.488],[-3.442,-70.535],[-2.738,-70.507],[-2.683,-70.462],[-2.684,-70.376],[-2.714,-70.32],[-2.794,-70.292],[-2.315,-70.175],[-1.901,-70.166],[-1.796,-70.11],[-1.291,-70.05],[-1.474,-70.022],[-1.463,-69.933],[-1.632,-69.934],[-1.453,-69.84],[-1.505,-69.807],[-1.318,-69.72],[-1.064,-69.72],[-1.105,-69.704],[-1.091,-69.671],[-0.963,-69.64],[-0.576,-69.65],[0.078,-69.59],[0.209,-69.934],[0.252,-69.829]],[[3.221,-70.519],[3.26,-70.449],[3.23,-70.403],[3.072,-70.382],[2.585,-70.535],[2.623,-70.593],[2.698,-70.624],[3.037,-70.597],[3.221,-70.519]],[[-2.963,-70.94],[-2.801,-70.982],[-2.825,-71.113],[-2.784,-71.167],[-2.607,-71.141],[-2.369,-71.044],[-2.092,-70.821],[-2.423,-70.8],[-2.75,-70.694],[-3.04,-70.674],[-3.575,-70.703],[-3.007,-70.851],[-2.963,-70.94]],[[-3.386,-71.143],[-3.201,-71.23],[-2.955,-71.214],[-3.263,-71.052],[-3.399,-71.062],[-3.386,-71.143]]]}},{"type":"Feature","properties":{},"geometry":{"type":"Polygon","coordinates":[[[32.464,-69.12],[32.576,-69.083],[32.903,-69.379],[32.976,-69.517],[32.989,-69.624],[32.81,-69.909],[32.621,-70.001],[31.379,-70.226],[30.003,-70.3],[29.464,-70.406],[28.911,-70.583],[27.698,-70.772],[27.207,-70.911],[26.499,-71.019],[25.974,-71.037],[25.187,-70.971],[24.757,-70.892],[24.386,-70.704],[24.386,-70.537],[24.236,-70.449],[24.024,-70.413],[23.804,-70.405],[23.665,-70.575],[23.407,-70.723],[23.15,-70.796],[22.979,-70.81],[22.445,-70.74],[22.278,-70.696],[22.234,-70.643],[22.396,-70.561],[22.366,-70.475],[21.962,-70.3],[21.705,-70.259],[21.337,-70.495],[21.071,-70.843],[20.128,-70.918],[19.409,-70.917],[19.265,-70.902],[19.027,-70.674],[19.132,-70.492],[19.196,-70.293],[19.009,-70.212],[18.877,-70.201],[18.433,-70.29],[18.351,-70.415],[18.232,-70.518],[18.125,-70.54],[16.709,-70.397],[16.585,-70.204],[16.381,-70.145],[16.025,-70.193],[15.807,-70.324],[14.492,-70.3],[13.823,-70.343],[13.298,-70.23],[13.066,-70.054],[12.996,-70.056],[12.93,-70.009],[12.957,-69.955],[12.879,-69.97],[12.862,-69.932],[13.039,-69.816],[13.27,-69.76],[13.269,-69.672],[13.581,-69.737],[13.782,-69.662],[13.714,-69.626],[13.853,-69.635],[13.735,-69.58],[14.207,-69.494],[14.861,-69.465],[15.464,-69.525],[15.504,-69.569],[15.442,-69.575],[15.418,-69.619],[15.574,-69.658],[15.566,-69.711],[15.506,-69.765],[15.561,-69.783],[15.504,-69.805],[15.579,-69.846],[15.563,-69.863],[15.614,-69.939],[16.159,-70.072],[16.315,-69.844],[16.625,-69.75],[16.586,-69.727],[16.967,-69.698],[17.336,-69.739],[17.659,-69.704],[17.731,-69.651],[17.787,-69.719],[19.03,-69.991],[19.35,-69.929],[19.923,-69.953],[19.567,-69.83],[19.646,-69.82],[19.613,-69.795],[19.643,-69.775],[19.724,-69.789],[19.711,-69.76],[19.912,-69.723],[20.663,-69.802],[21.19,-69.815],[21.381,-69.873],[21.341,-69.896],[21.443,-69.94],[21.271,-70.004],[21.772,-70.163],[22.299,-70.256],[22.666,-70.207],[22.723,-70.168],[22.727,-70.095],[22.954,-70.103],[23.061,-70.077],[23.16,-70.135],[23.652,-70.191],[23.793,-70.309],[23.967,-70.276],[24.24,-70.311],[24.311,-70.277],[24.626,-70.345],[24.738,-70.275],[24.65,-70.237],[24.661,-70.204],[24.712,-70.19],[24.927,-70.243],[24.813,-70.183],[24.808,-70.133],[24.853,-70.108],[24.803,-70.08],[24.844,-70.067],[25.105,-70.047],[25.205,-70.003],[25.556,-70.041],[25.747,-70.026],[25.837,-70.047],[25.86,-70.099],[25.612,-70.184],[25.921,-70.19],[25.888,-70.272],[25.962,-70.288],[26.005,-70.373],[26.47,-70.448],[26.609,-70.412],[26.793,-70.419],[26.857,-70.381],[26.875,-70.33],[26.632,-70.052],[26.676,-70.037],[26.594,-70.011],[26.624,-69.986],[26.52,-70.005],[26.553,-69.968],[26.404,-69.96],[26.495,-69.929],[26.792,-69.942],[27.07,-70.013],[27.37,-69.94],[27.75,-69.97],[28.138,-69.914],[27.973,-69.851],[28.034,-69.822],[28.347,-69.816],[28.431,-69.785],[28.39,-69.75],[28.442,-69.753],[28.381,-69.73],[28.498,-69.684],[28.561,-69.675],[28.701,-69.75],[28.815,-69.717],[28.939,-69.744],[29.137,-69.723],[29.316,-69.676],[29.242,-69.639],[29.356,-69.634],[29.285,-69.593],[29.278,-69.566],[29.346,-69.501],[29.243,-69.418],[29.265,-69.395],[29.392,-69.394],[29.993,-69.208],[30.157,-69.251],[30.49,-69.269],[30.537,-69.258],[30.492,-69.213],[30.547,-69.124],[30.695,-69.112],[30.663,-69.097],[30.748,-69.053],[30.901,-69.043],[31.459,-69.137],[31.589,-69.092],[32.056,-69.142],[32.464,-69.12]]]}},{"type":"Feature","properties":{},"geometry":{"type":"Polygon","coordinates":[[[38.73,-69.971],[38.754,-70.025],[38.902,-70.082],[38.885,-70.172],[38.499,-70.056],[38.144,-69.824],[38.0,-69.784],[38.271,-69.775],[38.235,-69.846],[38.388,-69.914],[38.526,-69.826],[38.799,-69.858],[38.73,-69.971]]]}},{"type":"Feature","properties":{},"geometry":{"type":"Polygon","coordinates":[[[34.843,-68.88],[34.856,-68.976],[34.904,-69.028],[34.878,-69.048],[34.93,-69.071],[35.023,-69.071],[35.078,-69.033],[35.453,-69.095],[35.639,-69.202],[35.697,-69.155],[35.845,-69.148],[36.18,-69.249],[36.515,-69.301],[36.655,-69.359],[36.711,-69.417],[36.376,-69.417],[36.485,-69.471],[36.523,-69.546],[36.982,-69.635],[37.061,-69.678],[37.108,-69.606],[37.641,-69.329],[38.063,-69.284],[37.582,-69.471],[37.29,-69.661],[37.266,-69.711],[37.31,-69.763],[37.115,-69.81],[36.719,-69.652],[36.586,-69.638],[35.357,-69.681],[35.225,-69.637],[35.131,-69.487],[34.749,-69.168],[34.596,-69.095],[33.814,-69.099],[33.772,-69.02],[34.074,-68.885],[34.217,-68.783],[34.521,-68.786],[34.843,-68.88]]]}},{"type":"Feature","properties":{},"geometry":{"type":"Polygon","coordinates":[[[47.605,-67.523],[48.114,-67.624],[48.302,-67.565],[48.452,-67.575],[48.63,-67.526],[48.648,-67.794],[48.551,-67.926],[48.375,-67.988],[48.322,-67.918],[48.322,-67.785],[48.21,-67.699],[47.958,-67.66],[47.49,-67.728],[47.117,-67.573],[47.231,-67.468],[47.399,-67.406],[47.441,-67.408],[47.559,-67.52],[47.538,-67.542],[47.605,-67.523]]]}},{"type":"Feature","properties":{},"geometry":{"type":"Polygon","coordinates":[[[56.453,-66.78],[56.146,-66.626],[56.294,-66.603],[56.781,-66.705],[56.808,-66.745],[56.644,-66.795],[56.702,-66.903],[57.02,-66.913],[57.1,-66.955],[56.964,-66.977],[56.983,-66.99],[56.931,-67.056],[56.562,-67.116],[56.366,-67.212],[56.155,-67.265],[55.803,-67.199],[56.391,-66.974],[56.48,-66.859],[56.453,-66.78]]]}},{"type":"Feature","properties":{},"geometry":{"type":"Polygon","coordinates":[[[77.876,-68.719],[77.832,-68.686],[78.489,-68.625],[78.141,-68.812],[78.088,-68.737],[77.876,-68.719]]]}},{"type":"Feature","properties":{},"geometry":{"type":"Polygon","coordinates":[[[120.0,-67.066],[120.0,-67.279],[119.133,-67.371],[118.922,-67.32],[119.281,-67.199],[120.0,-67.066]]]}},{"type":"Feature","properties":{},"geometry":{"type":"Polygon","coordinates":[[[86.713,-66.398],[87.342,-66.431],[87.866,-66.54],[88.333,-66.569],[88.601,-66.681],[88.534,-66.704],[88.55,-66.716],[88.763,-66.793],[88.314,-66.817],[87.98,-66.788],[87.085,-66.94],[86.75,-67.037],[86.118,-67.055],[85.711,-67.161],[84.748,-67.102],[84.485,-67.115],[84.161,-67.244],[83.904,-67.292],[83.494,-67.441],[83.304,-67.603],[82.607,-67.613],[82.273,-67.692],[82.017,-67.69],[81.355,-67.803],[81.38,-67.775],[81.319,-67.698],[81.402,-67.625],[81.343,-67.506],[81.545,-67.465],[81.67,-67.379],[81.768,-67.357],[81.708,-67.329],[81.716,-67.3],[82.029,-67.265],[82.169,-67.218],[82.617,-67.248],[83.318,-67.147],[83.481,-67.164],[83.53,-67.112],[83.582,-67.12],[83.559,-67.082],[83.803,-67.02],[84.498,-66.966],[84.469,-66.937],[84.503,-66.924],[84.118,-66.9],[84.138,-66.845],[84.075,-66.805],[83.957,-66.797],[84.004,-66.755],[83.96,-66.71],[84.08,-66.666],[84.381,-66.638],[84.553,-66.569],[84.76,-66.571],[84.95,-66.617],[85.024,-66.669],[85.073,-66.653],[85.08,-66.604],[85.222,-66.643],[85.328,-66.612],[85.137,-66.517],[85.389,-66.428],[85.687,-66.392],[85.834,-66.328],[86.035,-66.301],[86.437,-66.312],[86.713,-66.398]],[[86.652,-66.718],[86.383,-66.675],[86.232,-66.733],[86.337,-66.788],[86.427,-66.792],[86.652,-66.718]],[[85.622,-66.965],[85.822,-66.953],[85.938,-66.894],[85.806,-66.775],[85.34,-66.723],[85.314,-66.776],[85.359,-66.854],[85.622,-66.965]]]}},{"type":"Feature","properties":{},"geometry":{"type":"Polygon","coordinates":[[[118.519,-67.161],[118.139,-67.082],[117.745,-67.129],[117.132,-67.114],[116.924,-67.055],[116.713,-67.047],[116.509,-67.108],[115.885,-67.202],[115.384,-67.238],[115.172,-67.308],[114.658,-67.388],[114.027,-67.441],[113.912,-67.368],[113.991,-67.212],[114.571,-67.109],[115.274,-67.028],[115.442,-66.958],[115.635,-66.771],[115.442,-66.646],[115.726,-66.653],[115.904,-66.556],[116.37,-66.587],[116.386,-66.622],[116.522,-66.652],[116.672,-66.733],[116.609,-66.762],[116.621,-66.795],[116.773,-66.821],[116.911,-66.802],[117.064,-66.836],[117.416,-66.995],[118.075,-66.964],[118.282,-66.984],[118.691,-66.933],[118.921,-66.969],[119.419,-66.954],[119.5,-66.983],[119.72,-66.935],[120.0,-66.926],[120.0,-66.977],[119.768,-66.991],[118.965,-67.145],[118.519,-67.161]]]}},{"type":"Feature","properties":{},"geometry":{"type":"Polygon","coordinates":[[[110.437,-66.621],[109.824,-66.834],[109.463,-66.909],[109.314,-66.896],[109.383,-66.824],[109.49,-66.815],[109.543,-66.764],[109.509,-66.739],[109.581,-66.727],[109.562,-66.65],[109.727,-66.59],[109.874,-66.589],[110.033,-66.643],[110.22,-66.596],[110.139,-66.562],[110.264,-66.537],[110.335,-66.468],[110.47,-66.518],[110.544,-66.492],[110.62,-66.512],[110.437,-66.621]]]}},{"type":"Feature","properties":{},"geometry":{"type":"Polygon","coordinates":[[[97.447,-65.336],[97.658,-65.391],[97.716,-65.47],[97.856,-65.505],[97.88,-65.561],[97.825,-65.64],[97.967,-65.732],[98.387,-65.744],[98.429,-65.692],[98.543,-65.653],[99.151,-65.637],[99.273,-65.746],[99.447,-65.788],[99.657,-65.723],[99.887,-65.751],[100.231,-65.733],[100.315,-65.66],[100.547,-65.701],[100.981,-65.677],[101.23,-65.568],[101.676,-65.648],[101.732,-65.722],[101.691,-65.767],[102.107,-65.794],[102.157,-65.851],[102.567,-65.891],[102.174,-65.954],[101.381,-65.973],[101.321,-66.021],[101.327,-66.1],[100.889,-66.358],[99.37,-66.648],[98.859,-66.671],[98.72,-66.553],[98.258,-66.467],[97.72,-66.607],[97.388,-66.579],[97.101,-66.499],[96.424,-66.6],[95.541,-66.631],[94.909,-66.509],[94.968,-66.418],[94.848,-66.316],[94.892,-66.215],[95.338,-66.238],[95.571,-66.152],[95.541,-66.029],[95.499,-65.991],[95.537,-65.946],[95.491,-65.856],[95.536,-65.656],[95.485,-65.564],[95.403,-65.512],[95.545,-65.418],[95.534,-65.258],[95.84,-65.259],[95.931,-65.131],[96.158,-65.085],[96.183,-65.011],[96.254,-64.979],[96.948,-65.039],[97.131,-65.087],[97.39,-65.228],[97.464,-65.286],[97.479,-65.319],[97.447,-65.336]],[[97.006,-66.097],[96.932,-66.058],[96.5,-66.046],[96.399,-66.08],[96.307,-66.186],[96.395,-66.225],[96.934,-66.201],[97.016,-66.164],[97.006,-66.097]],[[100.174,-66.131],[100.082,-66.203],[100.133,-66.229],[100.265,-66.217],[100.29,-66.112],[100.174,-66.131]],[[98.596,-66.383],[98.655,-66.453],[98.752,-66.482],[98.95,-66.42],[98.749,-66.369],[98.596,-66.383]]]}},{"type":"Feature","properties":{},"geometry":{"type":"Polygon","coordinates":[[[103.981,-65.543],[103.966,-65.595],[104.077,-65.652],[104.084,-65.722],[103.998,-65.776],[104.047,-65.873],[103.929,-65.917],[103.933,-65.949],[103.875,-65.952],[103.877,-65.989],[103.639,-65.999],[102.883,-65.887],[102.902,-65.793],[102.972,-65.764],[103.037,-65.792],[103.087,-65.745],[103.045,-65.663],[102.888,-65.571],[103.098,-65.562],[103.173,-65.495],[103.176,-65.455],[103.337,-65.469],[103.397,-65.445],[103.374,-65.425],[103.551,-65.443],[103.645,-65.421],[103.981,-65.543]]]}}],"properties":{"source":"Natural Earth 1:50m Antarctic ice shelves (public domain)"}}